NORAD_CAT_ID,OBJECT_NAME,OBJECT_TYPE,EPOCH,MEAN_MOTION,ECCENTRICITY,INCLINATION,RA_OF_ASC_NODE,ARG_OF_PERICENTER,MEAN_ANOMALY,BSTAR,MEAN_MOTION_DOT,MEAN_MOTION_DDOT,TLE_LINE0,TLE_LINE1,TLE_LINE2,SEMIMAJOR_AXIS,PERIOD,APOGEE,PERIGEE,DECAYED
53542.0,STARLINK-4489,PAYLOAD,2023-05-12 00:18:53,15.08838162,0.0001131,53.216,19.9874,68.9756,291.1357,0.00014893,2.083e-05,0.0,0 STARLINK-4489,1 53542U 22101R   23132.01311593  .00002083  00000-0  14893-3 0  9990,2 53542  53.2160  19.9874 0001131  68.9756 291.1357 15.08838162 40401,6917.886,95.438,540.533,538.969,0.0
53542.0,STARLINK-4489,PAYLOAD,2023-05-12 20:58:53,15.08852844,0.0001121,53.2166,16.1217,70.2815,289.8298,0.00047202,7.235e-05,0.0,0 STARLINK-4489,1 53542U 22101R   23132.87423357  .00007235  00000-0  47202-3 0  9990,2 53542  53.2166  16.1217 0001121  70.2815 289.8298 15.08852844 41220,6917.841,95.437,540.482,538.931,0.0
53542.0,STARLINK-4489,PAYLOAD,2023-05-13 01:45:02,15.08863868,0.000108,53.2168,15.2296,75.0933,285.0179,0.00091015,0.00014236,0.0,0 STARLINK-4489,1 53542U 22101R   23133.07295107  .00014236  00000-0  91015-3 0  9993,2 53542  53.2168  15.2296 0001080  75.0933 285.0179 15.08863868 40567,6917.807,95.436,540.42,538.925,0.0
53542.0,STARLINK-4489,PAYLOAD,2023-05-13 20:49:40,15.08848659,0.0001137,53.217,11.6617,76.1477,283.9641,0.00035763,5.41e-05,0.0,0 STARLINK-4489,1 53542U 22101R   23133.86783306  .00005410  00000-0  35763-3 0  9995,2 53542  53.2170  11.6617 0001137  76.1477 283.9641 15.08848659 40680,6917.854,95.437,540.505,538.932,0.0
53542.0,STARLINK-4489,PAYLOAD,2023-05-14 03:11:13,15.0885576,0.0001129,53.2167,10.4735,75.6049,284.5068,0.00065103,0.00010093,0.0,0 STARLINK-4489,1 53542U 22101R   23134.13279133  .00010093  00000-0  65103-3 0  9998,2 53542  53.2167  10.4735 0001129  75.6049 284.5068 15.08855760 41417,6917.832,95.437,540.478,538.916,0.0
53542.0,STARLINK-4489,PAYLOAD,2023-05-14 20:40:27,15.08844016,0.000112,53.217,7.202,90.508,269.604,0.00088489,0.00013825,0.0,0 STARLINK-4489,1 53542U 22101R   23134.86143344  .00013825  00000-0  88489-3 0  9990,2 53542  53.2170   7.2020 0001120  90.5080 269.6040 15.08844016 41522,6917.868,95.437,540.508,538.958,0.0
53542.0,STARLINK-4489,PAYLOAD,2023-05-14 22:15:50,15.08845107,0.0001185,53.2171,6.9047,95.796,264.3167,0.00079777,0.00012433,0.0,0 STARLINK-4489,1 53542U 22101R   23134.92767300  .00012433  00000-0  79777-3 0  9995,2 53542  53.2171   6.9047 0001185  95.7960 264.3167 15.08845107 40841,6917.865,95.437,540.55,538.91,0.0
53542.0,STARLINK-4489,PAYLOAD,2023-05-15 01:26:37,15.08850804,0.0001173,53.2172,6.3099,93.3956,266.717,0.001049,0.00016451,0.0,0 STARLINK-4489,1 53542U 22101R   23135.06015229  .00016451  00000-0  10490-2 0  9997,2 53542  53.2172   6.3099 0001173  93.3956 266.7170 15.08850804 41558,6917.847,95.437,540.524,538.901,0.0
53542.0,STARLINK-4489,PAYLOAD,2023-05-15 22:06:38,15.08835403,0.0001081,53.2173,2.4396,90.0607,270.0509,0.00033567,5.058e-05,0.0,0 STARLINK-4489,1 53542U 22101R   23135.92127701  .00005058  00000-0  33567-3 0  9993,2 53542  53.2173   2.4396 0001081  90.0607 270.0509 15.08835403 40990,6917.894,95.438,540.507,539.012,0.0
53542.0,STARLINK-4489,PAYLOAD,2023-05-16 14:00:29,15.08833246,0.0001067,53.2166,359.4669,88.5305,271.581,6.4495e-05,7.39e-06,0.0,0 STARLINK-4489,1 53542U 22101R   23136.58368016  .00000739  00000-0  64495-4 0  9998,2 53542  53.2166 359.4669 0001067  88.5305 271.5810 15.08833246 41783,6917.901,95.438,540.504,539.028,0.0
53542.0,STARLINK-4489,PAYLOAD,2023-05-16 21:57:25,15.08839316,0.0001021,53.2167,357.9852,95.6595,264.4513,7.9153e-05,9.72e-06,0.0,0 STARLINK-4489,1 53542U 22101R   23136.91487786  .00000972  00000-0  79153-4 0  9997,2 53542  53.2167 357.9852 0001021  95.6595 264.4513 15.08839316 41832,6917.882,95.438,540.454,539.041,0.0
53542.0,STARLINK-4489,PAYLOAD,2023-05-17 02:43:34,15.08846838,0.00011,53.2161,357.0908,90.7416,269.3702,0.00023077,3.387e-05,0.0,0 STARLINK-4489,1 53542U 22101R   23137.11359479  .00003387  00000-0  23077-3 0  9993,2 53542  53.2161 357.0908 0001100  90.7416 269.3702 15.08846838 41173,6917.859,95.437,540.485,538.964,0.0
53542.0,STARLINK-4489,PAYLOAD,2023-05-17 05:54:21,15.08831835,0.0001187,53.2164,356.4965,85.1776,274.9351,-4.2265e-05,-9.6e-06,0.0,0 STARLINK-4489,1 53542U 22101R   23137.24608194 -.00000960  00000-0 -42265-4 0  9995,2 53542  53.2164 356.4965 0001187  85.1776 274.9351 15.08831835 41199,6917.905,95.438,540.592,538.949,0.0
53542.0,STARLINK-4489,PAYLOAD,2023-05-17 21:48:12,15.08845368,0.0001065,53.2163,353.5227,93.4431,266.6683,0.00029175,4.359e-05,0.0,0 STARLINK-4489,1 53542U 22101R   23137.90847890  .00004359  00000-0  29175-3 0  9994,2 53542  53.2163 353.5227 0001065  93.4431 266.6683 15.08845368 41981,6917.864,95.437,540.466,538.992,0.0
53542.0,STARLINK-4489,PAYLOAD,2023-05-17 23:23:35,15.0884524,9.74e-05,53.2163,353.2253,100.8387,259.2715,0.00032103,4.826e-05,0.0,0 STARLINK-4489,1 53542U 22101R   23137.97471844  .00004826  00000-0  32103-3 0  9997,2 53542  53.2163 353.2253 0000974 100.8387 259.2715 15.08845240 41307,6917.864,95.437,540.403,539.056,0.0
53542.0,STARLINK-4489,PAYLOAD,2023-05-18 13:42:03,15.08843667,0.0001048,53.2158,350.5491,91.5289,268.5824,0.00023763,3.496e-05,0.0,0 STARLINK-4489,1 53542U 22101R   23138.57087912  .00003496  00000-0  23763-3 0  9997,2 53542  53.2158 350.5491 0001048  91.5289 268.5824 15.08843667 42086,6917.869,95.437,540.459,539.009,0.0
53542.0,STARLINK-4489,PAYLOAD,2023-05-18 15:17:27,15.08843713,0.0001062,53.2158,350.2515,94.5848,265.5265,0.0002419,3.564e-05,0.0,0 STARLINK-4489,1 53542U 22101R   23138.63711920  .00003564  00000-0  24190-3 0  9998,2 53542  53.2158 350.2515 0001062  94.5848 265.5265 15.08843713 41403,6917.869,95.437,540.469,538.999,0.0
53542.0,STARLINK-4489,PAYLOAD,2023-05-19 16:43:37,15.0884265,0.0001039,53.2157,345.4936,93.0509,267.0602,0.00020944,3.047e-05,0.0,0 STARLINK-4489,1 53542U 22101R   23139.69695990  .00003047  00000-0  20944-3 0  9992,2 53542  53.2157 345.4936 0001039  93.0509 267.0602 15.08842650 41565,6917.872,95.437,540.456,539.019,0.0
53542.0,STARLINK-4489,PAYLOAD,2023-05-19 19:54:23,15.08842974,0.0001061,53.2158,344.8985,89.3183,270.7931,0.00016751,2.379e-05,0.0,0 STARLINK-4489,1 53542U 22101R   23139.82943993  .00002379  00000-0  16751-3 0  9994,2 53542  53.2158 344.8985 0001061  89.3183 270.7931 15.08842974 42278,6917.871,95.437,540.47,539.002,0.0
53542.0,STARLINK-4489,PAYLOAD,2023-05-20 19:45:09,15.08860395,0.0001232,53.2158,340.4372,96.4594,263.6539,0.00045712,6.999e-05,0.0,0 STARLINK-4489,1 53542U 22101R   23140.82303162  .00006999  00000-0  45712-3 0  9995,2 53542  53.2158 340.4372 0001232  96.4594 263.6539 15.08860395 41737,6917.818,95.436,540.535,538.831,0.0
53542.0,STARLINK-4489,PAYLOAD,2023-05-20 22:55:55,15.08865672,0.0001136,53.2156,339.8426,94.2657,265.8465,0.00054327,8.375e-05,0.0,0 STARLINK-4489,1 53542U 22101R   23140.95550862  .00008375  00000-0  54327-3 0  9992,2 53542  53.2156 339.8426 0001136  94.2657 265.8465 15.08865672 42440,6917.802,95.436,540.453,538.881,0.0
53542.0,STARLINK-4489,PAYLOAD,2023-05-21 19:35:58,15.08827492,0.0001139,53.2154,335.9776,70.1839,289.9276,-9.2558e-05,-1.76e-05,0.0,0 STARLINK-4489,1 53542U 22101R   23141.81664566 -.00001760  00000-0 -92558-4 0  9997,2 53542  53.2154 335.9776 0001139  70.1839 289.9276 15.08827492 41883,6917.919,95.438,540.572,538.996,0.0
53542.0,STARLINK-4489,PAYLOAD,2023-05-22 13:05:12,15.08843695,0.0001131,53.2165,332.7054,64.4194,295.6915,0.00070122,0.00010891,0.0,0 STARLINK-4489,1 53542U 22101R   23142.54528845  .00010891  00000-0  70122-3 0  9992,2 53542  53.2165 332.7054 0001131  64.4194 295.6915 15.08843695 42687,6917.869,95.437,540.517,538.952,0.0
53542.0,STARLINK-4489,PAYLOAD,2023-05-22 19:26:45,15.08861179,0.0001164,53.2164,331.5163,61.6546,298.4563,0.0012873,0.00020271,0.0,0 STARLINK-4489,1 53542U 22101R   23142.81024588  .00020271  00000-0  12873-2 0  9998,2 53542  53.2164 331.5163 0001164  61.6546 298.4563 15.08861179 42036,6917.816,95.436,540.486,538.875,0.0
53542.0,STARLINK-4489,PAYLOAD,2023-05-23 01:48:17,15.08838182,0.0001211,53.2159,330.327,75.2048,284.9078,0.00015782,2.225e-05,0.0,0 STARLINK-4489,1 53542U 22101R   23143.07520686  .00002225  00000-0  15782-3 0  9999,2 53542  53.2159 330.3270 0001211  75.2048 284.9078 15.08838182 42070,6917.886,95.438,540.589,538.913,0.0
53542.0,STARLINK-4489,PAYLOAD,2023-05-23 20:52:55,15.08847769,0.0001034,53.2165,326.7596,72.0006,288.1098,0.0012271,0.00019299,0.0,0 STARLINK-4489,1 53542U 22101R   23143.87008455  .00019299  00000-0  12271-2 0  9990,2 53542  53.2165 326.7596 0001034  72.0006 288.1098 15.08847769 42887,6917.857,95.437,540.437,539.006,0.0
53542.0,STARLINK-4489,PAYLOAD,2023-05-24 12:46:46,15.08840874,9.38e-05,53.2162,323.7856,86.1261,273.9838,0.00066169,0.00010259,0.0,0 STARLINK-4489,1 53542U 22101R   23144.53248653  .00010259  00000-0  66169-3 0  9993,2 53542  53.2162 323.7856 0000938  86.1261 273.9838 15.08840874 42290,6917.878,95.437,540.392,539.094,0.0
53542.0,STARLINK-4489,PAYLOAD,2023-05-24 15:57:33,15.0884788,0.0001027,53.2162,323.1905,86.4234,273.6876,0.000613,9.484e-05,0.0,0 STARLINK-4489,1 53542U 22101R   23144.66496544  .00009484  00000-0  61300-3 0  9991,2 53542  53.2162 323.1905 0001027  86.4234 273.6876 15.08847880 43005,6917.856,95.437,540.432,539.011,0.0
53542.0,STARLINK-4489,PAYLOAD,2023-05-25 18:59:06,15.0884866,9.48e-05,53.2159,318.1357,83.9524,276.1577,0.00048898,7.505e-05,0.0,0 STARLINK-4489,1 53542U 22101R   23145.79104493  .00007505  00000-0  48898-3 0  9994,2 53542  53.2159 318.1357 0000948  83.9524 276.1577 15.08848660 42485,6917.854,95.437,540.375,539.063,0.0
53542.0,STARLINK-4489,PAYLOAD,2023-05-26 18:49:53,15.08841526,9.94e-05,53.216,313.6754,82.3549,277.7556,0.00012016,1.625e-05,0.0,0 STARLINK-4489,1 53542U 22101R   23146.78464743  .00001625  00000-0  12016-3 0  9991,2 53542  53.2160 313.6754 0000994  82.3549 277.7556 15.08841526 42634,6917.876,95.437,540.428,539.053,0.0
